GLOBALSTAR M002         
1 25164U 98008C   24328.40180434 -.00000078  00000+0 -22795-4 0  9991
2 25164  52.0041  36.1738 0001871 132.5824 227.5154 11.61505979160155
GLOBALSTAR M003         
1 25165U 98008D   24328.64088060  .00000020  00000+0  11685-2 0  9999
2 25165  51.9994  17.7883 0007978 237.2554 294.1810 12.12055013208297
GLOBALSTAR M014         
1 25306U 98023A   24328.29883043 -.00000045  00000+0  60978-3 0  9996
2 25306  51.9854 323.9881 0001082 349.0080 109.8836 11.65475064167164
GLOBALSTAR M006         
1 25307U 98023B   24328.65690803 -.00000077  00000+0 -29580-4 0  9998
2 25307  51.9970   7.8734 0003760  96.7262  52.6096 11.58169869193013
GLOBALSTAR M015         
1 25308U 98023C   24328.64385884 -.00000051  00000+0  50579-3 0  9990
2 25308  51.9809  96.9539 0013395  73.6167  47.0078 11.48854972170456
GLOBALSTAR M008         
1 25309U 98023D   24328.77594003 -.00000063  00000+0  25951-3 0  9999
2 25309  51.9978  73.5868 0003318 107.2713  28.4615 12.36056360212444
